{
  "type": "FeatureCollection",
  "name": "shelter_locations_nakanobu_futaba",
  "crs": {
    "type": "name",
    "properties": {
      "name": "urn:ogc:def:crs:OGC:1.3:CRS84"
    }
  },
  "features": [
    {
      "type": "Feature",
      "properties": {
        "id": 1,
        "name": "中延小学校",
        "address": "東京都品川区中延1-11-15",
        "shelter_type": "区民避難所",
        "geocode_precision": "banchi",
        "geocode_source": "国土地理院 住所検索API (msearch.gsi.go.jp/address-search)",
        "geocoded_on": "2026-09-15"
      },
      "geometry": {
        "type": "Point",
        "coordinates": [
          139.709946,
          35.612083
        ]
      }
    },
    {
      "type": "Feature",
      "properties": {
        "id": 2,
        "name": "源氏前小学校",
        "address": "東京都品川区中延6-2-18",
        "shelter_type": "区民避難所",
        "geocode_precision": "banchi",
        "geocode_source": "国土地理院 住所検索API (msearch.gsi.go.jp/address-search)",
        "geocoded_on": "2026-09-15"
      },
      "geometry": {
        "type": "Point",
        "coordinates": [
          139.711731,
          35.60284
        ]
      }
    },
    {
      "type": "Feature",
      "properties": {
        "id": 3,
        "name": "上神明小学校",
        "address": "東京都品川区二葉4-4-10",
        "shelter_type": "区民避難所",
        "geocode_precision": "banchi",
        "geocode_source": "国土地理院 住所検索API (msearch.gsi.go.jp/address-search)",
        "geocoded_on": "2026-09-15"
      },
      "geometry": {
        "type": "Point",
        "coordinates": [
          139.715851,
          35.602905
        ]
      }
    },
    {
      "type": "Feature",
      "properties": {
        "id": 4,
        "name": "豊葉の杜学園",
        "address": "東京都品川区二葉1-3-40",
        "shelter_type": "区民避難所、自主避難施設",
        "geocode_precision": "banchi",
        "geocode_source": "国土地理院 住所検索API (msearch.gsi.go.jp/address-search)",
        "geocoded_on": "2026-09-15"
      },
      "geometry": {
        "type": "Point",
        "coordinates": [
          139.725403,
          35.607521
        ]
      }
    },
    {
      "type": "Feature",
      "properties": {
        "id": 5,
        "name": "延山小学校",
        "address": "東京都品川区西中延2-17-5",
        "shelter_type": "区民避難所",
        "geocode_precision": "banchi",
        "geocode_source": "国土地理院 住所検索API (msearch.gsi.go.jp/address-search)",
        "geocoded_on": "2026-09-15"
      },
      "geometry": {
        "type": "Point",
        "coordinates": [
          139.70813,
          35.60923
        ]
      }
    }
  ]
}
