{
"type": "FeatureCollection",
"name": "town_boundaries",
"crs": { "type": "name", "properties": { "name": "urn:ogc:def:crs:OGC:1.3:CRS84" } },
"features": [
{ "type": "Feature", "properties": { "town_name": "中延一丁目" }, "geometry": { "type": "Polygon", "coordinates": [ [ [ 139.708757352791309, 35.612148830950908 ], [ 139.708641731256051, 35.612163360735721 ], [ 139.708571042242767, 35.612552076407781 ], [ 139.708599909932104, 35.612552281306556 ], [ 139.709123600737968, 35.612556122626025 ], [ 139.709111727782897, 35.613063769737288 ], [ 139.709098924523886, 35.613084390389716 ], [ 139.709076135345327, 35.6137556122479 ], [ 139.709064536334353, 35.61401569710052 ], [ 139.70944323170778, 35.614046983814802 ], [ 139.709593546890687, 35.614059404006994 ], [ 139.709594166634531, 35.614059461671737 ], [ 139.709639049727599, 35.61406353090365 ], [ 139.709933263313189, 35.614090206566864 ], [ 139.710151974406699, 35.614146094181336 ], [ 139.710238310251839, 35.613876648201483 ], [ 139.710151974406699, 35.614146094181351 ], [ 139.710423328907609, 35.614211754349654 ], [ 139.710479082699266, 35.614253958888703 ], [ 139.710538523552714, 35.614331375543493 ], [ 139.710848089474922, 35.614051767224083 ], [ 139.71085552049297, 35.614047478544265 ], [ 139.710956162911174, 35.613989343153705 ], [ 139.710962085258274, 35.613985616307176 ], [ 139.711004706476842, 35.613958688356306 ], [ 139.711140606562708, 35.613872771830181 ], [ 139.711365347551606, 35.613775712978168 ], [ 139.711614889256225, 35.613608504343688 ], [ 139.71182421131121, 35.613435410603174 ], [ 139.711835316669664, 35.613426231338124 ], [ 139.712180037805041, 35.613239610324825 ], [ 139.712431106731827, 35.61313799839121 ], [ 139.712646609005475, 35.612996174777059 ], [ 139.712753606393562, 35.612945050413558 ], [ 139.712916588988492, 35.612878710213408 ], [ 139.713067449799098, 35.612817303698463 ], [ 139.713374142084234, 35.612697682061317 ], [ 139.713061961301975, 35.612044294324328 ], [ 139.712953906239903, 35.611806555646346 ], [ 139.712839744600927, 35.611531558092608 ], [ 139.712540560357496, 35.611626114496545 ], [ 139.7120098993542, 35.611793258430723 ], [ 139.711640607409322, 35.611915665199021 ], [ 139.711508185904506, 35.611948911212664 ], [ 139.710222597949979, 35.612049899318606 ], [ 139.709569813457961, 35.612096101929239 ], [ 139.709154057391999, 35.612119830976489 ], [ 139.708757352791309, 35.612148830950908 ] ], [ [ 139.71137724681202, 35.612414679541935 ], [ 139.711232945909984, 35.612415219465284 ], [ 139.711129653788049, 35.612828599011586 ], [ 139.711038023046854, 35.612837520526405 ], [ 139.710679875275758, 35.612829060368561 ], [ 139.711038023046854, 35.612837520526398 ], [ 139.711129653788049, 35.612828599011571 ], [ 139.711232945909956, 35.612415219465284 ], [ 139.71137724681202, 35.612414679541914 ], [ 139.711508185904506, 35.611948911212664 ], [ 139.71137724681202, 35.612414679541935 ] ], [ [ 139.711022111931726, 35.613036202638206 ], [ 139.71102163841519, 35.61307926462883 ], [ 139.710660190169477, 35.613077137784849 ], [ 139.710660190169477, 35.613077137784828 ], [ 139.71102163841519, 35.613079264628816 ], [ 139.711022111931726, 35.613036202638199 ], [ 139.711075118880274, 35.61303764863721 ], [ 139.711022111931726, 35.613036202638206 ] ], [ [ 139.710660509554742, 35.612866945543843 ], [ 139.711023945479013, 35.612869210815255 ], [ 139.710660509554742, 35.61286694554385 ], [ 139.710660509554742, 35.612866945543843 ] ], [ [ 139.710483412029305, 35.613320262242937 ], [ 139.710483626329847, 35.613316942468316 ], [ 139.710483412029305, 35.613320262242944 ], [ 139.710471044129264, 35.613319378137689 ], [ 139.710483412029305, 35.613320262242937 ] ], [ [ 139.710438082429789, 35.613510874925787 ], [ 139.710378180530284, 35.613499268758503 ], [ 139.71042354711031, 35.613350750756943 ], [ 139.710378180530313, 35.613499268758503 ], [ 139.710438082429789, 35.613510874925787 ] ], [ [ 139.712071179848607, 35.611822788277827 ], [ 139.712167642099331, 35.611792221357689 ], [ 139.712071179848635, 35.611822788277827 ], [ 139.71209334167537, 35.612037627131848 ], [ 139.712071179848607, 35.611822788277827 ] ], [ [ 139.712390149644278, 35.611968419488257 ], [ 139.712324306577159, 35.611758221993469 ], [ 139.712390149644335, 35.611968419488242 ], [ 139.712390149644278, 35.611968419488257 ] ] ] } },
{ "type": "Feature", "properties": { "town_name": "中延三丁目" }, "geometry": { "type": "MultiPolygon", "coordinates": [ [ [ [ 139.710650646463449, 35.606453203624135 ], [ 139.710388491783334, 35.606494118039826 ], [ 139.71036455775004, 35.606828976738868 ], [ 139.710388491783306, 35.606494118039819 ], [ 139.709663834984383, 35.606597041331426 ], [ 139.709585655323508, 35.607271552354376 ], [ 139.709519081500275, 35.607857980325896 ], [ 139.710315139369555, 35.607854386765354 ], [ 139.709519081500218, 35.607857980325903 ], [ 139.709454163784812, 35.608390186217761 ], [ 139.70944678526962, 35.608449684410807 ], [ 139.709439398963809, 35.608515131461104 ], [ 139.710091697490867, 35.608861664481516 ], [ 139.710781454829629, 35.60923875900027 ], [ 139.710948195840956, 35.608755703435214 ], [ 139.711048255487697, 35.608443208383548 ], [ 139.710948195840984, 35.608755703435214 ], [ 139.710781454829629, 35.609238759000284 ], [ 139.710955985568688, 35.609326960921642 ], [ 139.71187978859524, 35.609359471677905 ], [ 139.711970049743371, 35.609075662356922 ], [ 139.712047502146049, 35.608821286313116 ], [ 139.712151592301467, 35.608479419160489 ], [ 139.712223542067591, 35.60783630549232 ], [ 139.71224100793782, 35.607662420358899 ], [ 139.712206581184375, 35.607633550000713 ], [ 139.712236947993745, 35.607329364278137 ], [ 139.712265598389763, 35.607042253210395 ], [ 139.712280406892035, 35.60674002260938 ], [ 139.712313397820509, 35.606187783628975 ], [ 139.711934874565316, 35.606248500512635 ], [ 139.711796813945028, 35.606270645786346 ], [ 139.711519440683389, 35.60631821831808 ], [ 139.711282114199406, 35.606354670644883 ], [ 139.710816785948765, 35.606427277219268 ], [ 139.710742654875276, 35.606438843813152 ], [ 139.710650646463449, 35.606453203624135 ] ], [ [ 139.711559940736265, 35.608459777701576 ], [ 139.711561253575184, 35.608382163881359 ], [ 139.711559940736265, 35.608459777701583 ], [ 139.711048255487697, 35.608443208383548 ], [ 139.711559940736265, 35.608459777701576 ] ], [ [ 139.710839511101739, 35.606815195858481 ], [ 139.710778939152846, 35.606816951886849 ], [ 139.710839511101767, 35.606815195858466 ], [ 139.710888310319262, 35.606814838481256 ], [ 139.710839511101739, 35.606815195858481 ] ], [ [ 139.71139535012432, 35.607932305029593 ], [ 139.711393335210715, 35.607856249023222 ], [ 139.711113868066008, 35.607845615836368 ], [ 139.711393335210715, 35.6078562490232 ], [ 139.71139535012432, 35.607932305029593 ] ], [ [ 139.711563879253049, 35.608226936240911 ], [ 139.711563879253049, 35.608226936240925 ], [ 139.711438697830346, 35.608223677537602 ], [ 139.711440766993974, 35.608132451697216 ], [ 139.711438697830374, 35.608223677537602 ], [ 139.711563879253049, 35.608226936240911 ] ] ], [ [ [ 139.71187978859524, 35.609359471677912 ], [ 139.710955985568688, 35.609326960921656 ], [ 139.711082004366034, 35.609375395614265 ], [ 139.711545774501616, 35.609668388065529 ], [ 139.71173278656704, 35.609786528916821 ], [ 139.71187978859524, 35.609359471677912 ] ] ] ] } },
{ "type": "Feature", "properties": { "town_name": "中延二丁目" }, "geometry": { "type": "Polygon", "coordinates": [ [ [ 139.70937105083263, 35.609131802821715 ], [ 139.709353963656923, 35.609288260404966 ], [ 139.709275879331159, 35.610102239359342 ], [ 139.709404802030576, 35.610103444559151 ], [ 139.709275879331159, 35.61010223935935 ], [ 139.70924095553994, 35.610473635054603 ], [ 139.70920732180781, 35.610840068377762 ], [ 139.70917523766397, 35.611068021023442 ], [ 139.709155395759609, 35.611731924163017 ], [ 139.70915090676516, 35.611912440513869 ], [ 139.709154057391999, 35.612119830976489 ], [ 139.709569813457961, 35.612096101929239 ], [ 139.710222597949979, 35.612049899318606 ], [ 139.711508185904506, 35.611948911212664 ], [ 139.711640607409322, 35.611915665199021 ], [ 139.7120098993542, 35.611793258430723 ], [ 139.712540560357496, 35.611626114496545 ], [ 139.712839744600927, 35.611531558092608 ], [ 139.712563356946475, 35.610947113041291 ], [ 139.712418558075598, 35.610640919013441 ], [ 139.712262278075372, 35.61037816598899 ], [ 139.712183010529657, 35.610262323655924 ], [ 139.712107122502687, 35.610298569964321 ], [ 139.712095437507429, 35.610286241898429 ], [ 139.71207861204141, 35.610269975615132 ], [ 139.711696084939518, 35.609900151106885 ], [ 139.71173278656704, 35.609786528916821 ], [ 139.711545774501616, 35.609668388065529 ], [ 139.711082004366034, 35.609375395614265 ], [ 139.710955985568688, 35.609326960921656 ], [ 139.710781454829629, 35.60923875900027 ], [ 139.710091697490867, 35.608861664481516 ], [ 139.709439398963809, 35.608515131461104 ], [ 139.709436174067491, 35.608544529203812 ], [ 139.709420478173655, 35.608679121624725 ], [ 139.70937105083263, 35.609131802821715 ] ], [ [ 139.711599290222608, 35.610171419906855 ], [ 139.710558221309185, 35.610119597264358 ], [ 139.711599290222608, 35.610171419906848 ], [ 139.711696084939518, 35.609900151106885 ], [ 139.711599290222608, 35.610171419906855 ] ], [ [ 139.70997314539261, 35.610112667648046 ], [ 139.709798089807549, 35.610107312159997 ], [ 139.70997314539261, 35.610112667648039 ], [ 139.710558221309185, 35.610119597264358 ], [ 139.70997314539261, 35.610112667648046 ] ], [ [ 139.709478229346388, 35.611409235793111 ], [ 139.70939882543621, 35.611690099013501 ], [ 139.709398825436182, 35.611690099013501 ], [ 139.709478229346388, 35.611409235793111 ] ], [ [ 139.71028381033716, 35.611720078735495 ], [ 139.710278815560031, 35.611748291247835 ], [ 139.710278815560002, 35.611748291247835 ], [ 139.71028381033716, 35.611720078735495 ] ], [ [ 139.710321202119417, 35.611509067845596 ], [ 139.71033138015747, 35.611438550586854 ], [ 139.710331419574487, 35.611438326162116 ], [ 139.71033138015747, 35.611438550586861 ], [ 139.710321202119417, 35.611509067845603 ], [ 139.71028381033716, 35.611720078735495 ], [ 139.710321202119417, 35.611509067845596 ] ], [ [ 139.710311473770417, 35.611417087443698 ], [ 139.709659471882958, 35.611315498570278 ], [ 139.709633014231144, 35.611292937129072 ], [ 139.709659471882958, 35.611315498570271 ], [ 139.710311473770417, 35.611417087443691 ], [ 139.710331419574487, 35.611438326162116 ], [ 139.710311473770417, 35.611417087443698 ] ] ] } },
{ "type": "Feature", "properties": { "town_name": "中延五丁目" }, "geometry": { "type": "Polygon", "coordinates": [ [ [ 139.706188336388351, 35.601219264250105 ], [ 139.70583181917408, 35.601256988082518 ], [ 139.705820845363945, 35.60129179941633 ], [ 139.705783958259758, 35.601309014282982 ], [ 139.706183473609798, 35.602047224913598 ], [ 139.706233585796525, 35.602147415946263 ], [ 139.706315518285948, 35.602469145955361 ], [ 139.706350393639866, 35.602602099447267 ], [ 139.70642543022268, 35.602888190034584 ], [ 139.706459387805921, 35.603022904119896 ], [ 139.706587625405433, 35.60351745864947 ], [ 139.706625279021125, 35.603662670811865 ], [ 139.706695236259861, 35.603927524661898 ], [ 139.706708230766253, 35.603972678260092 ], [ 139.707045079681933, 35.603934048305042 ], [ 139.707144727919228, 35.603924363602232 ], [ 139.70747945579572, 35.603891789172671 ], [ 139.707955948620935, 35.603900483059817 ], [ 139.708000154029975, 35.603920246240762 ], [ 139.708295713096419, 35.603922169410026 ], [ 139.709047494620961, 35.604057617118492 ], [ 139.709270796580313, 35.604108159334217 ], [ 139.70928423819538, 35.604155320048882 ], [ 139.709523304556427, 35.604227181914233 ], [ 139.709615030192168, 35.604259351259905 ], [ 139.709845953674233, 35.604340358850571 ], [ 139.70984671167048, 35.604261700604127 ], [ 139.709849525836233, 35.604118150411558 ], [ 139.709822751337811, 35.60390651049687 ], [ 139.709799326257752, 35.603586144893669 ], [ 139.709775963087822, 35.603350921990391 ], [ 139.70977561083032, 35.603347362101516 ], [ 139.70975534992192, 35.603143368176333 ], [ 139.710103842907017, 35.603085764669153 ], [ 139.710019815481928, 35.60274248557851 ], [ 139.709916064715458, 35.602318628468844 ], [ 139.709910718637701, 35.601926276965834 ], [ 139.709918551100884, 35.601738512511034 ], [ 139.709921676520707, 35.601457783789243 ], [ 139.709930916581385, 35.600982810740057 ], [ 139.709510219746221, 35.60102523294313 ], [ 139.70935915921342, 35.601051026724704 ], [ 139.709076490103996, 35.601104715179908 ], [ 139.708970444012209, 35.601085241883247 ], [ 139.708838682263604, 35.601058558783478 ], [ 139.708026101857229, 35.601108039601058 ], [ 139.707883302617461, 35.601116730785058 ], [ 139.706883293339274, 35.601180235510164 ], [ 139.706188336388351, 35.601219264250105 ] ], [ [ 139.706377224209689, 35.601969436111581 ], [ 139.706377224209689, 35.601969436111595 ], [ 139.706183473609798, 35.602047224913598 ], [ 139.706377224209689, 35.601969436111581 ] ], [ [ 139.709377559736538, 35.601504234921563 ], [ 139.709395502191143, 35.601786813507076 ], [ 139.709377559736538, 35.60150423492157 ], [ 139.70935915921342, 35.601051026724704 ], [ 139.709377559736538, 35.601504234921563 ] ], [ [ 139.708210255561937, 35.602279248016544 ], [ 139.707241474424478, 35.601780657887787 ], [ 139.707232000151492, 35.601773606602713 ], [ 139.707205116465587, 35.601753561829611 ], [ 139.707232000151492, 35.601773606602706 ], [ 139.707241474424478, 35.60178065788778 ], [ 139.708210255561937, 35.602279248016536 ], [ 139.708219153513397, 35.602608892916415 ], [ 139.708210255561937, 35.602279248016544 ] ], [ [ 139.707102609470041, 35.603578449735501 ], [ 139.707207107789912, 35.603561657010701 ], [ 139.708195597985991, 35.603402856238134 ], [ 139.707207107789941, 35.603561657010701 ], [ 139.707102609470041, 35.603578449735501 ] ], [ [ 139.706312998505354, 35.601865710501677 ], [ 139.706312998505354, 35.60186571050167 ], [ 139.706436311093739, 35.601823763543386 ], [ 139.706312998505354, 35.601865710501677 ] ], [ [ 139.708879948232379, 35.602015610466637 ], [ 139.708882608784847, 35.602079449609171 ], [ 139.708812465783637, 35.602091126930496 ], [ 139.708882608784819, 35.602079449609164 ], [ 139.708879948232379, 35.602015610466637 ] ], [ [ 139.708444103098401, 35.601872141435642 ], [ 139.708393812832071, 35.6019564543192 ], [ 139.708444103098344, 35.601872141435642 ], [ 139.708740752743978, 35.601847023099722 ], [ 139.708444103098401, 35.601872141435642 ] ], [ [ 139.709443205189928, 35.603193238461493 ], [ 139.709576740800088, 35.603171846861912 ], [ 139.709443205189928, 35.6031932384615 ], [ 139.709443205189928, 35.603193238461493 ] ], [ [ 139.709438306929258, 35.602588978782578 ], [ 139.709409092146842, 35.602467332680874 ], [ 139.709438306929258, 35.602588978782563 ], [ 139.709576740800088, 35.603171846861912 ], [ 139.709438306929258, 35.602588978782578 ] ], [ [ 139.709555861923377, 35.603919789399754 ], [ 139.709555861923377, 35.603919789399761 ], [ 139.709540414167208, 35.603921201143756 ], [ 139.709555861923377, 35.603919789399754 ] ], [ [ 139.709494634397856, 35.603801039521571 ], [ 139.709494634397885, 35.603801039521571 ], [ 139.70949546936356, 35.603801270889072 ], [ 139.709494634397856, 35.603801039521571 ] ] ] } },
{ "type": "Feature", "properties": { "town_name": "中延六丁目" }, "geometry": { "type": "Polygon", "coordinates": [ [ [ 139.711136549509405, 35.600897212424591 ], [ 139.710856863043745, 35.600925160465344 ], [ 139.710335604053171, 35.600956320462593 ], [ 139.709930916581385, 35.600982810740057 ], [ 139.709921676520707, 35.601457783789243 ], [ 139.709918551100884, 35.601738512511034 ], [ 139.709910718637701, 35.601926276965834 ], [ 139.709916064715458, 35.602318628468844 ], [ 139.710019815481928, 35.602742485578503 ], [ 139.710186994898294, 35.602711464585383 ], [ 139.710019815481928, 35.60274248557851 ], [ 139.710103842907017, 35.603085764669153 ], [ 139.70975534992192, 35.603143368176333 ], [ 139.70977561083032, 35.603347362101516 ], [ 139.709775963087822, 35.603350921990391 ], [ 139.709799326257752, 35.603586144893669 ], [ 139.709822751337811, 35.60390651049687 ], [ 139.709849525836233, 35.604118150411558 ], [ 139.710533694033444, 35.604024445632575 ], [ 139.710956310176385, 35.60397015413637 ], [ 139.711427322459116, 35.603906544885291 ], [ 139.711673960233526, 35.603873237219204 ], [ 139.712168985590665, 35.603809575915406 ], [ 139.712324622335075, 35.603789557699272 ], [ 139.712324622335075, 35.603789557699287 ], [ 139.712551078374588, 35.603759820129689 ], [ 139.712847257536168, 35.603723218702292 ], [ 139.713201733803999, 35.603679409311141 ], [ 139.713109965235077, 35.603211199686676 ], [ 139.713097297682026, 35.603142177403988 ], [ 139.713084936308178, 35.603089170423509 ], [ 139.71296984010425, 35.602595662810842 ], [ 139.712822007528928, 35.602619353924055 ], [ 139.712969840104279, 35.602595662810835 ], [ 139.712968772889781, 35.602589923638376 ], [ 139.712921873782705, 35.602355246002382 ], [ 139.712819371576501, 35.601842338252922 ], [ 139.712723600466433, 35.601324274828499 ], [ 139.712715293963612, 35.601279334847192 ], [ 139.712609211452701, 35.600735376215944 ], [ 139.712332468419277, 35.600777209535387 ], [ 139.71231821813285, 35.600778745646444 ], [ 139.711922808269975, 35.600821235949155 ], [ 139.711827732565979, 35.600830259327296 ], [ 139.711410826462213, 35.600869804021535 ], [ 139.711136549509405, 35.600897212424591 ] ], [ [ 139.710388118796345, 35.601698980736167 ], [ 139.710388118796345, 35.60169898073616 ], [ 139.710911993815813, 35.601654871870622 ], [ 139.710388118796345, 35.601698980736167 ] ], [ [ 139.710995508598074, 35.602173229197476 ], [ 139.710988557871104, 35.602138947400249 ], [ 139.710511535187607, 35.602221350640463 ], [ 139.710988557871104, 35.602138947400235 ], [ 139.710995508598074, 35.602173229197476 ] ], [ [ 139.711152114174666, 35.601629814989714 ], [ 139.711152114174723, 35.601629814989707 ], [ 139.711215522568182, 35.602094354682592 ], [ 139.711152114174666, 35.601629814989714 ] ], [ [ 139.710347052455205, 35.602678271296071 ], [ 139.710320557980083, 35.602682210652922 ], [ 139.710347052455205, 35.602678271296057 ], [ 139.710359460224282, 35.602675417992081 ], [ 139.710347052455205, 35.602678271296071 ] ], [ [ 139.710433911685044, 35.602580341118134 ], [ 139.710510247067702, 35.602569505981847 ], [ 139.710510247067702, 35.602569505981862 ], [ 139.710433911685072, 35.602580341118134 ], [ 139.71036169808329, 35.602591732188309 ], [ 139.710344265467228, 35.602594558846832 ], [ 139.710344265467228, 35.602594558846818 ], [ 139.71036169808329, 35.602591732188301 ], [ 139.710433911685044, 35.602580341118134 ] ], [ [ 139.711126974096885, 35.602731772261237 ], [ 139.71113694563013, 35.602767453778455 ], [ 139.711141776708644, 35.602784741928666 ], [ 139.71113694563013, 35.602767453778469 ], [ 139.711126974096885, 35.602731772261237 ] ], [ [ 139.712270094026593, 35.601747866263899 ], [ 139.712267774114167, 35.601737370835416 ], [ 139.712270094026593, 35.601747866263892 ], [ 139.712428359805813, 35.601719999692996 ], [ 139.712270094026593, 35.601747866263899 ] ], [ [ 139.712502294646129, 35.60130299293121 ], [ 139.712547137656969, 35.601463421611811 ], [ 139.712552185467501, 35.601468142018987 ], [ 139.712577743119709, 35.601538023974186 ], [ 139.712552185467473, 35.601468142018987 ], [ 139.712547137656969, 35.601463421611818 ], [ 139.712502294646129, 35.60130299293121 ] ], [ [ 139.71230217189941, 35.603611020699965 ], [ 139.712309655377965, 35.603670533033075 ], [ 139.71230217189941, 35.603611020699972 ], [ 139.712296251032058, 35.603563969016186 ], [ 139.712291530431429, 35.60352647039614 ], [ 139.712226202849905, 35.603024293497697 ], [ 139.712291530431429, 35.603526470396126 ], [ 139.712296251032114, 35.603563969016186 ], [ 139.71230217189941, 35.603611020699965 ] ] ] } },
{ "type": "Feature", "properties": { "town_name": "中延四丁目" }, "geometry": { "type": "Polygon", "coordinates": [ [ [ 139.708548434836018, 35.604324740180367 ], [ 139.708646036922744, 35.604920914078065 ], [ 139.708646003925963, 35.604942286085951 ], [ 139.708643148534691, 35.605485788899998 ], [ 139.708622876162195, 35.605849206739791 ], [ 139.709193941600887, 35.605863940477946 ], [ 139.709223971448608, 35.60586471372212 ], [ 139.709193941600859, 35.605863940477953 ], [ 139.708622876162167, 35.605849206739791 ], [ 139.7086027186553, 35.606226674650209 ], [ 139.708616011837819, 35.606761143184983 ], [ 139.709240406282817, 35.606665936915292 ], [ 139.70930748522207, 35.606656394517302 ], [ 139.709663834984383, 35.606597041331426 ], [ 139.710388491783306, 35.606494118039819 ], [ 139.710650646463449, 35.606453203624135 ], [ 139.710742654875276, 35.606438843813152 ], [ 139.710816785948765, 35.606427277219268 ], [ 139.711282114199406, 35.606354670644883 ], [ 139.711519440683389, 35.60631821831808 ], [ 139.711796813945028, 35.606270645786346 ], [ 139.711934874565316, 35.606248500512635 ], [ 139.712313397820509, 35.606187783628975 ], [ 139.712915752073172, 35.606094160029969 ], [ 139.713010795943831, 35.606080513748225 ], [ 139.713010884074578, 35.606080593791958 ], [ 139.71321619781628, 35.606050475945459 ], [ 139.713216292011424, 35.60605100804262 ], [ 139.713673684633903, 35.60597677810334 ], [ 139.713559720654303, 35.605447596938262 ], [ 139.713464022431396, 35.605002305540367 ], [ 139.713357648417372, 35.604452289269517 ], [ 139.71334450197304, 35.604376677779946 ], [ 139.713296713313525, 35.604136885399562 ], [ 139.713201733803999, 35.603679409311141 ], [ 139.712847257536168, 35.603723218702292 ], [ 139.712551078374588, 35.603759820129689 ], [ 139.712324622335075, 35.603789557699272 ], [ 139.712168985590665, 35.603809575915406 ], [ 139.711673960233526, 35.603873237219204 ], [ 139.711427322459116, 35.603906544885291 ], [ 139.710956310176385, 35.60397015413637 ], [ 139.710533694033444, 35.604024445632575 ], [ 139.709849525836233, 35.604118150411558 ], [ 139.70984671167048, 35.604261700604127 ], [ 139.709845953674233, 35.604340358850571 ], [ 139.709615030192168, 35.604259351259905 ], [ 139.709523304556427, 35.604227181914233 ], [ 139.70928423819538, 35.604155320048882 ], [ 139.709270796580313, 35.604108159334217 ], [ 139.709047494620961, 35.604057617118492 ], [ 139.708295713096419, 35.603922169409998 ], [ 139.708548434836018, 35.604324740180367 ] ], [ [ 139.710850914207015, 35.605288317643634 ], [ 139.71079654002753, 35.605904441672273 ], [ 139.710850914207015, 35.605288317643627 ], [ 139.710850914207015, 35.605288317643634 ] ], [ [ 139.711189831697766, 35.604535934681131 ], [ 139.71113601822384, 35.604532924031197 ], [ 139.710859746604712, 35.604482965457464 ], [ 139.711136018223897, 35.60453292403119 ], [ 139.711189831697766, 35.604535934681131 ] ], [ [ 139.711937210782281, 35.604455066774463 ], [ 139.712414649441826, 35.604361953410532 ], [ 139.712414649441826, 35.604361953410539 ], [ 139.711937210782281, 35.604455066774463 ] ], [ [ 139.712408328184523, 35.604329379334104 ], [ 139.712408328184523, 35.604329379334089 ], [ 139.712914476761057, 35.6042311166294 ], [ 139.712408328184523, 35.604329379334104 ] ], [ [ 139.712858579685985, 35.603986630888535 ], [ 139.712595911241522, 35.604014997277773 ], [ 139.712858579685985, 35.603986630888528 ], [ 139.712914476761057, 35.6042311166294 ], [ 139.712858579685985, 35.603986630888535 ] ], [ [ 139.710909318767762, 35.604538384534237 ], [ 139.710877230285917, 35.6045915355554 ], [ 139.710909318767733, 35.604538384534223 ], [ 139.710909318767762, 35.604538384534237 ] ] ] } },
{ "type": "Feature", "properties": { "town_name": "二葉一丁目" }, "geometry": { "type": "Polygon", "coordinates": [ [ [ 139.726283710554554, 35.604906479701114 ], [ 139.726122903965745, 35.605028688868892 ], [ 139.725868439670876, 35.605266374073601 ], [ 139.72561836380919, 35.605549483301097 ], [ 139.725535257121891, 35.60564081264161 ], [ 139.725445021060608, 35.60574372105804 ], [ 139.725320822021501, 35.605885363613559 ], [ 139.725053764562972, 35.606202364375733 ], [ 139.724897686014401, 35.606372569288496 ], [ 139.724834004467624, 35.606421135300906 ], [ 139.724756080193998, 35.606480605626267 ], [ 139.724466921233585, 35.60665315381177 ], [ 139.724081890309691, 35.606806527868237 ], [ 139.724463293621824, 35.607424497217266 ], [ 139.724912265882693, 35.608059464095554 ], [ 139.724970690579426, 35.608122649524937 ], [ 139.725329132257571, 35.608524863716426 ], [ 139.725542996916403, 35.608543329199911 ], [ 139.726697271175254, 35.6086153875533 ], [ 139.726757746410385, 35.608637061185583 ], [ 139.726847463603804, 35.608666047751377 ], [ 139.72724167328883, 35.608815126610139 ], [ 139.727583039442663, 35.608902575946807 ], [ 139.728044132009927, 35.609020726492076 ], [ 139.728241766377408, 35.609071355209458 ], [ 139.728302719229987, 35.609039968043973 ], [ 139.72906225990036, 35.609122707227428 ], [ 139.729405813215095, 35.609155365799623 ], [ 139.72975792641904, 35.609227395551642 ], [ 139.729623926147042, 35.608579238971735 ], [ 139.729600721139093, 35.608470633407329 ], [ 139.72971980543926, 35.608177578322056 ], [ 139.729742689765175, 35.608094432847686 ], [ 139.729765646158484, 35.608035792468783 ], [ 139.729819158033251, 35.607846621216147 ], [ 139.729828778329363, 35.607718864176299 ], [ 139.729843650636184, 35.607521301345706 ], [ 139.729844260862137, 35.607440601736492 ], [ 139.729845152796855, 35.607323738435298 ], [ 139.729848665669522, 35.607255188237048 ], [ 139.729894451786294, 35.607098965681928 ], [ 139.729717279292259, 35.607007442325767 ], [ 139.72972557129259, 35.606996850614685 ], [ 139.729176251009221, 35.606670150259852 ], [ 139.729110229333429, 35.606647417170876 ], [ 139.7290597440022, 35.606611129351741 ], [ 139.728792538639453, 35.606419048972739 ], [ 139.728614418140126, 35.6062533356519 ], [ 139.728536228146822, 35.60618059125521 ], [ 139.728325218353802, 35.605988334355217 ], [ 139.728065119401492, 35.6057048059903 ], [ 139.728037696199806, 35.605679739654164 ], [ 139.728037696199806, 35.605679739654178 ], [ 139.727997398130697, 35.605642906145818 ], [ 139.727986572113423, 35.605633012979844 ], [ 139.727749413026316, 35.605416295897676 ], [ 139.727729937578204, 35.605398674662958 ], [ 139.727235094259726, 35.605796139763726 ], [ 139.727729937578204, 35.605398674662943 ], [ 139.727257088835898, 35.60489231944532 ], [ 139.727239962472083, 35.604875869296407 ], [ 139.727113063410712, 35.604753991173475 ], [ 139.726890360326365, 35.604596999043366 ], [ 139.726762427389019, 35.604533259639695 ], [ 139.726593783217623, 35.604470786801677 ], [ 139.726494920267442, 35.604448761965536 ], [ 139.726557458292888, 35.60456944964011 ], [ 139.726674763350871, 35.60473155612798 ], [ 139.726539626702305, 35.604792065849303 ], [ 139.726360488576205, 35.604872253445912 ], [ 139.726283710554554, 35.604906479701114 ] ], [ [ 139.728223485131309, 35.606119816568025 ], [ 139.728223485131309, 35.60611981656799 ], [ 139.728325218353802, 35.605988334355217 ], [ 139.728223485131309, 35.606119816568025 ] ], [ [ 139.726623597868581, 35.604916510464385 ], [ 139.726648218547695, 35.604965643535508 ], [ 139.726658701489754, 35.604976252287209 ], [ 139.726648218547666, 35.604965643535508 ], [ 139.726623597868581, 35.604916510464385 ] ], [ [ 139.727022447794639, 35.60575218580275 ], [ 139.727074755263828, 35.605794660711972 ], [ 139.727151208958219, 35.605731866987227 ], [ 139.727074755263828, 35.605794660711986 ], [ 139.727022447794639, 35.60575218580275 ] ], [ [ 139.726887082540969, 35.605785301806385 ], [ 139.726939070581125, 35.605820662971361 ], [ 139.726939070581096, 35.605820662971382 ], [ 139.726887082540969, 35.605785301806385 ] ], [ [ 139.726788706703644, 35.605412901831073 ], [ 139.726868061734621, 35.605370017796758 ], [ 139.726788706703644, 35.605412901831087 ], [ 139.726788706703644, 35.605412901831073 ] ], [ [ 139.725535311025368, 35.607632438168352 ], [ 139.725535311025368, 35.607632438168345 ], [ 139.72553537629301, 35.60763249764446 ], [ 139.725535311025368, 35.607632438168352 ] ], [ [ 139.726778144837539, 35.60731976386716 ], [ 139.726429037192361, 35.607564618503268 ], [ 139.72660431951158, 35.607730650943296 ], [ 139.726604319511523, 35.607730650943331 ], [ 139.726429037192332, 35.607564618503282 ], [ 139.726778144837539, 35.60731976386716 ] ], [ [ 139.726953426178341, 35.607486675493398 ], [ 139.726916232875112, 35.607512668273692 ], [ 139.726953426178341, 35.607486675493391 ], [ 139.726953426178341, 35.607486675493398 ] ], [ [ 139.727185779267813, 35.607893418666961 ], [ 139.727138008638747, 35.607843299981944 ], [ 139.727185779267842, 35.607893418666961 ], [ 139.727164795260393, 35.60790780031661 ], [ 139.727185779267813, 35.607893418666961 ] ], [ [ 139.727195658086316, 35.607938496328977 ], [ 139.727216652922948, 35.607924078373159 ], [ 139.727277278083363, 35.607986313868544 ], [ 139.727216652922948, 35.607924078373173 ], [ 139.727195658086316, 35.607938496328991 ], [ 139.727164795260393, 35.60790780031661 ], [ 139.727195658086316, 35.607938496328977 ] ], [ [ 139.727092037842056, 35.607833829533206 ], [ 139.727039085546465, 35.607813959014756 ], [ 139.727092037842056, 35.607833829533199 ], [ 139.727092037842056, 35.607833829533206 ] ], [ [ 139.726994037946014, 35.607766772532258 ], [ 139.726959643465023, 35.607790438171918 ], [ 139.726945315726766, 35.607776025009045 ], [ 139.72686246214829, 35.607830033588847 ], [ 139.726945315726766, 35.607776025009031 ], [ 139.726959643465023, 35.607790438171897 ], [ 139.726994037946014, 35.607766772532244 ], [ 139.727039085546465, 35.607813959014756 ], [ 139.726994037946014, 35.607766772532258 ] ], [ [ 139.727314794838065, 35.607989973360134 ], [ 139.727314794838037, 35.60798997336012 ], [ 139.727384446008955, 35.607901693367118 ], [ 139.727314794838065, 35.607989973360134 ] ], [ [ 139.728221682721596, 35.606089286784503 ], [ 139.728221656119047, 35.606088836182082 ], [ 139.728132651691681, 35.606038671718814 ], [ 139.728070868736609, 35.60610986725306 ], [ 139.728132651691681, 35.6060386717188 ], [ 139.728221656119047, 35.606088836182074 ], [ 139.728221682721596, 35.606089286784503 ] ], [ [ 139.727920257327639, 35.605993768975118 ], [ 139.727980808291562, 35.606028102935788 ], [ 139.727961797193274, 35.606049850281615 ], [ 139.727980808291505, 35.606028102935788 ], [ 139.727920257327639, 35.605993768975132 ], [ 139.727915724167389, 35.605986077430124 ], [ 139.727920257327639, 35.605993768975118 ] ], [ [ 139.727848014299639, 35.605966576090538 ], [ 139.727770328124279, 35.605916722315293 ], [ 139.727754271228974, 35.605913129280061 ], [ 139.727770328124308, 35.605916722315285 ], [ 139.727848014299639, 35.605966576090538 ] ], [ [ 139.727866850749223, 35.605739110124972 ], [ 139.727887247317824, 35.605752530048591 ], [ 139.727887682823763, 35.605756405739605 ], [ 139.727887247317796, 35.605752530048605 ], [ 139.727866850749223, 35.605739110124972 ] ], [ [ 139.727867551136342, 35.605822655358438 ], [ 139.727915417103134, 35.605843875570116 ], [ 139.727939872922462, 35.605811048386933 ], [ 139.727915417103134, 35.605843875570123 ], [ 139.727867551136342, 35.605822655358438 ] ], [ [ 139.728638890315835, 35.607080226992323 ], [ 139.728385897387682, 35.607297356564771 ], [ 139.728638890315807, 35.607080226992309 ], [ 139.728638890315835, 35.607080226992323 ] ], [ [ 139.728058398442101, 35.607490967738165 ], [ 139.727975811974346, 35.607424019019611 ], [ 139.728058398442101, 35.607490967738151 ], [ 139.728385897387682, 35.607297356564771 ], [ 139.728058398442101, 35.607490967738165 ] ], [ [ 139.728278631652614, 35.606756329884718 ], [ 139.728110474223769, 35.606621713592226 ], [ 139.728110474223797, 35.606621713592212 ], [ 139.728278631652614, 35.606756329884718 ] ], [ [ 139.727966732635963, 35.606733800666589 ], [ 139.728005049299242, 35.606760559568471 ], [ 139.728005049299242, 35.606760559568478 ], [ 139.727966732635963, 35.606733800666589 ] ], [ [ 139.7295193140734, 35.607933869518078 ], [ 139.7295193140734, 35.607933869518099 ], [ 139.729409427399588, 35.607888402834533 ], [ 139.7295193140734, 35.607933869518078 ] ] ] } },
{ "type": "Feature", "properties": { "town_name": "二葉三丁目" }, "geometry": { "type": "Polygon", "coordinates": [ [ [ 139.718766332907848, 35.601482480314949 ], [ 139.718733726355396, 35.601520757632301 ], [ 139.718716048912057, 35.601824212433499 ], [ 139.718684745084687, 35.602288774307183 ], [ 139.718633966773496, 35.602962956085555 ], [ 139.718654422025367, 35.603395880525781 ], [ 139.718650416917825, 35.603529042383585 ], [ 139.718561691620977, 35.60395250360213 ], [ 139.719253765365096, 35.604062023674594 ], [ 139.719294521676886, 35.60406794200528 ], [ 139.719603729888121, 35.604122103742142 ], [ 139.719721168102865, 35.604146683510344 ], [ 139.720004068364233, 35.604170187113212 ], [ 139.720515377989898, 35.604151578149967 ], [ 139.721058505458814, 35.604123700703965 ], [ 139.721275450389811, 35.604156189502739 ], [ 139.721492252860855, 35.604276314675189 ], [ 139.721743914475354, 35.604372598768286 ], [ 139.721904468931058, 35.604405459247531 ], [ 139.722081854019365, 35.604434004980583 ], [ 139.722227988515726, 35.604520301180784 ], [ 139.722299834895807, 35.604584979110754 ], [ 139.722387692517742, 35.604702205029859 ], [ 139.722554627476057, 35.604994466518399 ], [ 139.722691752525321, 35.605230477309988 ], [ 139.722743594359883, 35.605319703453226 ], [ 139.723026304523358, 35.605486402517698 ], [ 139.723146113691598, 35.605529576236755 ], [ 139.723361445199004, 35.605477840991611 ], [ 139.722907952223238, 35.604354356423165 ], [ 139.722807224595329, 35.6041195509614 ], [ 139.722500016242634, 35.603452840859269 ], [ 139.722494283705572, 35.603443856899311 ], [ 139.722481314173081, 35.603423422674176 ], [ 139.722088443717638, 35.602549610346699 ], [ 139.721912374256306, 35.602158020184703 ], [ 139.721896576083878, 35.602133747641588 ], [ 139.721761580508399, 35.602101718400363 ], [ 139.72157759348994, 35.602084785671039 ], [ 139.721205103339003, 35.602050504215057 ], [ 139.720993172382975, 35.602027175688271 ], [ 139.720690630078991, 35.601967427037373 ], [ 139.720382412500953, 35.60184827318448 ], [ 139.719987499116883, 35.601684709188376 ], [ 139.719737646282368, 35.601598248922556 ], [ 139.71955438843699, 35.601554266583399 ], [ 139.719524077205136, 35.601546992130359 ], [ 139.719316965720822, 35.601515249886539 ], [ 139.718766332907848, 35.601482480314949 ] ], [ [ 139.721033462398339, 35.604081218997173 ], [ 139.72087549068317, 35.603813260717779 ], [ 139.720776426530989, 35.603683171807354 ], [ 139.72087549068317, 35.603813260717772 ], [ 139.721033462398367, 35.604081218997173 ], [ 139.721058505458814, 35.604123700703965 ], [ 139.721033462398339, 35.604081218997173 ] ], [ [ 139.720606829460564, 35.603496681645808 ], [ 139.720710948440313, 35.603612550991954 ], [ 139.720710948440313, 35.603612550991961 ], [ 139.720606829460564, 35.603496681645808 ] ], [ [ 139.720202950921703, 35.602550291481165 ], [ 139.720092251046253, 35.60250847337992 ], [ 139.720202950921703, 35.602550291481158 ], [ 139.720452149660588, 35.602651856367004 ], [ 139.720202950921703, 35.602550291481165 ] ], [ [ 139.719924978641302, 35.602445284380501 ], [ 139.719852382771194, 35.602599128678058 ], [ 139.719924978641274, 35.602445284380494 ], [ 139.719924978641302, 35.602445284380501 ] ], [ [ 139.719493847408614, 35.602298634750632 ], [ 139.719301872141841, 35.602290013184117 ], [ 139.719301872141841, 35.60229001318411 ], [ 139.719493847408614, 35.602298634750632 ] ], [ [ 139.719280801359417, 35.602140597290905 ], [ 139.719265080377511, 35.602107670323349 ], [ 139.719280801359417, 35.602140597290898 ], [ 139.719285985298939, 35.602192112747829 ], [ 139.719280801359417, 35.602140597290905 ] ], [ [ 139.721414266978627, 35.603029171718205 ], [ 139.721170182632278, 35.603547869383817 ], [ 139.721414266978627, 35.603029171718198 ], [ 139.721522898012211, 35.603072355883853 ], [ 139.721414266978627, 35.603029171718205 ] ], [ [ 139.72129465124749, 35.603596765118127 ], [ 139.721612294323961, 35.603721548000927 ], [ 139.72129465124749, 35.603596765118141 ], [ 139.721170182632278, 35.603547869383817 ], [ 139.72129465124749, 35.603596765118127 ] ], [ [ 139.721660460250803, 35.603575716766294 ], [ 139.721740160079349, 35.603158724215156 ], [ 139.72166046025086, 35.603575716766294 ], [ 139.721612294323961, 35.603721548000927 ], [ 139.721660460250803, 35.603575716766294 ] ] ] } },
{ "type": "Feature", "properties": { "town_name": "二葉二丁目" }, "geometry": { "type": "Polygon", "coordinates": [ [ [ 139.72220376910505, 35.602208219973839 ], [ 139.722203564365685, 35.602208186223024 ], [ 139.722135678079184, 35.602196292229777 ], [ 139.721912374256306, 35.602158020184703 ], [ 139.722088443717638, 35.602549610346699 ], [ 139.722481314173081, 35.603423422674176 ], [ 139.722494283705572, 35.603443856899311 ], [ 139.722500016242634, 35.603452840859269 ], [ 139.722807224595329, 35.6041195509614 ], [ 139.722907952223238, 35.604354356423165 ], [ 139.723361445199004, 35.605477840991611 ], [ 139.723363862680117, 35.605483829141491 ], [ 139.723580802177224, 35.605904367531856 ], [ 139.723950194915375, 35.606583878748268 ], [ 139.724081890309691, 35.606806527868237 ], [ 139.724466921233585, 35.60665315381177 ], [ 139.724756080193998, 35.606480605626267 ], [ 139.724834004467624, 35.606421135300906 ], [ 139.724582605540377, 35.606201687450586 ], [ 139.724582605540377, 35.606201687450579 ], [ 139.724834004467624, 35.606421135300899 ], [ 139.72489768601443, 35.606372569288489 ], [ 139.725053764562972, 35.606202364375733 ], [ 139.725320822021501, 35.605885363613552 ], [ 139.725445021060608, 35.60574372105804 ], [ 139.725535257121891, 35.60564081264161 ], [ 139.72561836380919, 35.605549483301097 ], [ 139.725868439670876, 35.605266374073601 ], [ 139.726122903965745, 35.605028688868892 ], [ 139.726283710554554, 35.604906479701114 ], [ 139.726360488576205, 35.604872253445912 ], [ 139.726539626702305, 35.604792065849303 ], [ 139.726674763350871, 35.60473155612798 ], [ 139.726557458292888, 35.604569449640124 ], [ 139.726494920267442, 35.604448761965536 ], [ 139.726323998448038, 35.604372625706709 ], [ 139.726154612709053, 35.604236315413736 ], [ 139.725845299208743, 35.603963896177156 ], [ 139.725732280417304, 35.603848022331526 ], [ 139.725524888046635, 35.6036502007425 ], [ 139.724965314405267, 35.603257626130606 ], [ 139.724510099194703, 35.603005143081596 ], [ 139.724027549954457, 35.602779393173591 ], [ 139.723910859808143, 35.60272724644566 ], [ 139.723859245939451, 35.602708748477227 ], [ 139.72378931683761, 35.602827235521524 ], [ 139.723617243978396, 35.602832217359278 ], [ 139.723462677075531, 35.602758661052796 ], [ 139.723198172974463, 35.602737958774298 ], [ 139.723091338572601, 35.602919259121542 ], [ 139.722819240822389, 35.602840312851072 ], [ 139.722406526203798, 35.602716519964119 ], [ 139.722472700208101, 35.602494373413315 ], [ 139.722230717407172, 35.602424431676688 ], [ 139.72220376910505, 35.602208219973839 ] ], [ [ 139.72380136373954, 35.603200501798028 ], [ 139.723329972750008, 35.603011730345301 ], [ 139.723146122894718, 35.603320946700471 ], [ 139.723628407230706, 35.603506810523804 ], [ 139.72314612289469, 35.603320946700471 ], [ 139.723329972750008, 35.603011730345287 ], [ 139.72380136373954, 35.603200501798028 ] ], [ [ 139.724369883469734, 35.604828368632113 ], [ 139.724312838389181, 35.604908595439191 ], [ 139.724393272420201, 35.604947328436445 ], [ 139.724312838389153, 35.604908595439191 ], [ 139.724369883469734, 35.604828368632113 ] ], [ [ 139.724376617769764, 35.604722637093126 ], [ 139.724393234191268, 35.60473106068288 ], [ 139.724376617769764, 35.604722637093133 ], [ 139.724376617769764, 35.604722637093126 ] ], [ [ 139.724827667669473, 35.605955158712035 ], [ 139.724696862977538, 35.606103028004974 ], [ 139.724827667669445, 35.605955158712014 ], [ 139.724827667669473, 35.605955158712035 ] ], [ [ 139.72518575701784, 35.605610039627003 ], [ 139.725181536963021, 35.605614717631902 ], [ 139.725181536963021, 35.605614717631894 ], [ 139.72518575701784, 35.605610039626995 ], [ 139.72518575701784, 35.605610039627003 ] ] ] } },
{ "type": "Feature", "properties": { "town_name": "二葉四丁目" }, "geometry": { "type": "Polygon", "coordinates": [ [ [ 139.714182797874685, 35.601591023545417 ], [ 139.714326877266899, 35.601976461988137 ], [ 139.714182797874685, 35.601591023545424 ], [ 139.714008633192606, 35.601646677069276 ], [ 139.713933889060968, 35.601670560003882 ], [ 139.713908990974573, 35.601679719775291 ], [ 139.71387489755196, 35.601692262190561 ], [ 139.71355692017508, 35.601737473448743 ], [ 139.713508544746077, 35.601744352682964 ], [ 139.713044793661936, 35.601810288173979 ], [ 139.713044793661936, 35.601810288173965 ], [ 139.712819371576501, 35.601842338252915 ], [ 139.712921873782705, 35.602355246002382 ], [ 139.712968772889781, 35.602589923638369 ], [ 139.71296984010425, 35.602595662810842 ], [ 139.713084936308178, 35.603089170423509 ], [ 139.713097297682026, 35.603142177403988 ], [ 139.713109965235077, 35.603211199686676 ], [ 139.713201733803999, 35.603679409311141 ], [ 139.713885387209729, 35.603587516405725 ], [ 139.713930773053818, 35.603581750754053 ], [ 139.713986863805189, 35.603574589386504 ], [ 139.714473435432069, 35.603509960718874 ], [ 139.714322195576074, 35.60296169831944 ], [ 139.713904898383618, 35.603026358458145 ], [ 139.713904898383618, 35.603026358458138 ], [ 139.714322195576102, 35.602961698319419 ], [ 139.714473435432097, 35.603509960718874 ], [ 139.7149900064164, 35.603444093641166 ], [ 139.715489998472378, 35.60337852434224 ], [ 139.715670320692027, 35.603369720365798 ], [ 139.716020516161734, 35.603400445292777 ], [ 139.716512976136954, 35.603348033784933 ], [ 139.716512976136954, 35.603348033784926 ], [ 139.716671058561587, 35.60335019308188 ], [ 139.716962042387308, 35.603460363001133 ], [ 139.71701915472957, 35.603237698976031 ], [ 139.716962042387337, 35.603460363001133 ], [ 139.717114248651939, 35.603508217864757 ], [ 139.717430169780727, 35.603607072797629 ], [ 139.717815011843044, 35.603711097877415 ], [ 139.718280215467445, 35.603861428813005 ], [ 139.718368169963128, 35.603889888132379 ], [ 139.718561691620977, 35.60395250360213 ], [ 139.718650416917825, 35.603529042383585 ], [ 139.718654422025367, 35.603395880525781 ], [ 139.718633966773496, 35.602962956085555 ], [ 139.718684745084687, 35.602288774307183 ], [ 139.718716048912086, 35.601824212433506 ], [ 139.718473467649346, 35.601812227220861 ], [ 139.718716048912057, 35.601824212433499 ], [ 139.718733726355396, 35.601520757632301 ], [ 139.718766332907848, 35.601482480314949 ], [ 139.717711984434033, 35.60142926364518 ], [ 139.716594437757976, 35.601372457480444 ], [ 139.71569856150046, 35.601325994206576 ], [ 139.715091435258387, 35.601305300693234 ], [ 139.714431053843128, 35.601511686788236 ], [ 139.714257510189071, 35.60156714924242 ], [ 139.714182797874685, 35.601591023545417 ] ], [ [ 139.714014764163295, 35.602047240452059 ], [ 139.714014764163295, 35.602047240452052 ], [ 139.714326877266899, 35.601976461988137 ], [ 139.714014764163295, 35.602047240452059 ] ], [ [ 139.713565157797149, 35.60197255048972 ], [ 139.713602540803549, 35.60212324050098 ], [ 139.71356515779712, 35.601972550489727 ], [ 139.713508544746077, 35.601744352682964 ], [ 139.713565157797149, 35.60197255048972 ] ], [ [ 139.716565205576529, 35.60171656839308 ], [ 139.717224053676489, 35.601748502510475 ], [ 139.717536668266632, 35.601762821839557 ], [ 139.717224053676489, 35.601748502510503 ], [ 139.716565205576529, 35.601716568393087 ], [ 139.716024081132673, 35.601687491394102 ], [ 139.716565205576529, 35.60171656839308 ] ], [ [ 139.71579944519047, 35.602661176704892 ], [ 139.715873481079569, 35.602911766426267 ], [ 139.71579944519047, 35.602661176704906 ], [ 139.71579944519047, 35.602661176704892 ] ], [ [ 139.715057963912699, 35.60194707159301 ], [ 139.715080440944178, 35.602017195691673 ], [ 139.715220479729794, 35.601987290960722 ], [ 139.715080440944178, 35.602017195691694 ], [ 139.71505796391267, 35.601947071593017 ], [ 139.71488044690858, 35.60198499497583 ], [ 139.71488044690858, 35.601984994975815 ], [ 139.715057963912699, 35.60194707159301 ] ], [ [ 139.715173432019355, 35.601652266080052 ], [ 139.715313838920224, 35.601967354473409 ], [ 139.715173432019327, 35.601652266080052 ], [ 139.715173432019355, 35.601652266080052 ] ], [ [ 139.713129107337323, 35.602212071634881 ], [ 139.71319086606087, 35.602202529263074 ], [ 139.713129107337323, 35.602212071634902 ], [ 139.713093664514105, 35.602043173677522 ], [ 139.713047229737867, 35.601821896868039 ], [ 139.713093664514162, 35.602043173677522 ], [ 139.713129107337323, 35.602212071634881 ] ], [ [ 139.713606906981283, 35.602140840459761 ], [ 139.713431514701966, 35.602165768714812 ], [ 139.713606906981283, 35.602140840459747 ], [ 139.713606906981283, 35.602140840459761 ] ], [ [ 139.717076213211953, 35.60256674016621 ], [ 139.717076213211925, 35.60256674016621 ], [ 139.717096964319637, 35.602214521914682 ], [ 139.717076213211953, 35.60256674016621 ] ], [ [ 139.717199886129634, 35.60222092292021 ], [ 139.717598775064516, 35.602242394866089 ], [ 139.717199886129634, 35.602220922920225 ], [ 139.717096964319637, 35.602214521914682 ], [ 139.717199886129634, 35.60222092292021 ] ], [ [ 139.717052418818952, 35.602564112426485 ], [ 139.71701931682648, 35.602931318204995 ], [ 139.71701931682648, 35.60293131820498 ], [ 139.717052418818952, 35.602564112426485 ] ] ] } }
]
}
